[{"OBJECT_NAME":"ONEWEB-0658","OBJECT_ID":"2023-029Z","EPOCH":"2025-09-12T13:53:26.935008","MEAN_MOTION":13.19725994,"ECCENTRICITY":0.00013791,"INCLINATION":87.9295,"RA_OF_ASC_NODE":0.1303,"ARG_OF_PERICENTER":107.8785,"MEAN_ANOMALY":252.2499,"EPHEMERIS_TYPE":0,"CLASSIFICATION_TYPE":"U","NORAD_CAT_ID":55819,"ELEMENT_SET_NO":999,"REV_AT_EPOCH":12230,"BSTAR":5.2196234e-5,"MEAN_MOTION_DOT":3.4e-7,"MEAN_MOTION_DDOT":0},{"OBJECT_NAME":"ONEWEB-0660","OBJECT_ID":"2023-029AA","EPOCH":"2025-09-12T12:36:07.519392","MEAN_MOTION":13.14505092,"ECCENTRICITY":0.00016312,"INCLINATION":87.9094,"RA_OF_ASC_NODE":344.9674,"ARG_OF_PERICENTER":91.8044,"MEAN_ANOMALY":268.3272,"EPHEMERIS_TYPE":0,"CLASSIFICATION_TYPE":"U","NORAD_CAT_ID":55820,"ELEMENT_SET_NO":999,"REV_AT_EPOCH":12292,"BSTAR":3.447736e-5,"MEAN_MOTION_DOT":2.6e-7,"MEAN_MOTION_DDOT":0},{"OBJECT_NAME":"ONEWEB-0661","OBJECT_ID":"2023-029AB","EPOCH":"2025-09-12T13:26:22.991712","MEAN_MOTION":13.14503411,"ECCENTRICITY":0.0001695,"INCLINATION":87.909,"RA_OF_ASC_NODE":345.0324,"ARG_OF_PERICENTER":88.5464,"MEAN_ANOMALY":271.586,"EPHEMERIS_TYPE":0,"CLASSIFICATION_TYPE":"U","NORAD_CAT_ID":55821,"ELEMENT_SET_NO":999,"REV_AT_EPOCH":12291,"BSTAR":0.00037808458,"MEAN_MOTION_DOT":1.53e-6,"MEAN_MOTION_DDOT":0},{"OBJECT_NAME":"ONEWEB-0662","OBJECT_ID":"2023-029AC","EPOCH":"2025-09-12T12:26:59.961984","MEAN_MOTION":13.14503882,"ECCENTRICITY":0.00015515,"INCLINATION":87.9084,"RA_OF_ASC_NODE":345.0465,"ARG_OF_PERICENTER":93.6256,"MEAN_ANOMALY":266.5051,"EPHEMERIS_TYPE":0,"CLASSIFICATION_TYPE":"U","NORAD_CAT_ID":55822,"ELEMENT_SET_NO":999,"REV_AT_EPOCH":12295,"BSTAR":-0.00032458096,"MEAN_MOTION_DOT":-1.08e-6,"MEAN_MOTION_DDOT":0},{"OBJECT_NAME":"ONEWEB-0663","OBJECT_ID":"2023-029AD","EPOCH":"2025-09-12T10:56:48.981408","MEAN_MOTION":13.20845675,"ECCENTRICITY":0.00014964,"INCLINATION":87.9298,"RA_OF_ASC_NODE":329.8498,"ARG_OF_PERICENTER":93.4017,"MEAN_ANOMALY":266.7288,"EPHEMERIS_TYPE":0,"CLASSIFICATION_TYPE":"U","NORAD_CAT_ID":55823,"ELEMENT_SET_NO":999,"REV_AT_EPOCH":12448,"BSTAR":0.00021233301,"MEAN_MOTION_DOT":9.9e-7,"MEAN_MOTION_DDOT":0},{"OBJECT_NAME":"ONEWEB-0664","OBJECT_ID":"2023-029AE","EPOCH":"2025-09-11T17:01:40.857888","MEAN_MOTION":13.20770976,"ECCENTRICITY":0.00020364,"INCLINATION":87.9282,"RA_OF_ASC_NODE":330.0178,"ARG_OF_PERICENTER":88.129,"MEAN_ANOMALY":272.0076,"EPHEMERIS_TYPE":0,"CLASSIFICATION_TYPE":"U","NORAD_CAT_ID":55824,"ELEMENT_SET_NO":999,"REV_AT_EPOCH":12438,"BSTAR":0.00031025002,"MEAN_MOTION_DOT":1.39e-6,"MEAN_MOTION_DDOT":0},{"OBJECT_NAME":"ONEWEB-0665","OBJECT_ID":"2023-029AF","EPOCH":"2025-09-12T11:32:11.585760","MEAN_MOTION":13.14503724,"ECCENTRICITY":0.00015799,"INCLINATION":87.9096,"RA_OF_ASC_NODE":345.0234,"ARG_OF_PERICENTER":95.8137,"MEAN_ANOMALY":264.3173,"EPHEMERIS_TYPE":0,"CLASSIFICATION_TYPE":"U","NORAD_CAT_ID":55825,"ELEMENT_SET_NO":999,"REV_AT_EPOCH":12292,"BSTAR":0.00029170546,"MEAN_MOTION_DOT":1.21e-6,"MEAN_MOTION_DDOT":0},{"OBJECT_NAME":"ONEWEB-0666","OBJECT_ID":"2023-029AG","EPOCH":"2025-09-12T11:03:29.511936","MEAN_MOTION":13.20771182,"ECCENTRICITY":0.00025297,"INCLINATION":87.9278,"RA_OF_ASC_NODE":329.8565,"ARG_OF_PERICENTER":110.9801,"MEAN_ANOMALY":249.1603,"EPHEMERIS_TYPE":0,"CLASSIFICATION_TYPE":"U","NORAD_CAT_ID":55826,"ELEMENT_SET_NO":999,"REV_AT_EPOCH":12449,"BSTAR":0.0002629498,"MEAN_MOTION_DOT":1.2e-6,"MEAN_MOTION_DDOT":0},{"OBJECT_NAME":"ONEWEB-0667","OBJECT_ID":"2023-029AH","EPOCH":"2025-09-12T10:54:23.616864","MEAN_MOTION":13.2077147,"ECCENTRICITY":0.00017807,"INCLINATION":87.928,"RA_OF_ASC_NODE":329.7855,"ARG_OF_PERICENTER":93.8954,"MEAN_ANOMALY":266.2382,"EPHEMERIS_TYPE":0,"CLASSIFICATION_TYPE":"U","NORAD_CAT_ID":55827,"ELEMENT_SET_NO":999,"REV_AT_EPOCH":12448,"BSTAR":0.00014841334,"MEAN_MOTION_DOT":7.3e-7,"MEAN_MOTION_DDOT":0},{"OBJECT_NAME":"ONEWEB-0669","OBJECT_ID":"2023-029AJ","EPOCH":"2025-09-12T10:47:34.021248","MEAN_MOTION":13.20769216,"ECCENTRICITY":0.00025284,"INCLINATION":87.9282,"RA_OF_ASC_NODE":329.8265,"ARG_OF_PERICENTER":90.4007,"MEAN_ANOMALY":269.7416,"EPHEMERIS_TYPE":0,"CLASSIFICATION_TYPE":"U","NORAD_CAT_ID":55828,"ELEMENT_SET_NO":999,"REV_AT_EPOCH":12448,"BSTAR":0.00021006142,"MEAN_MOTION_DOT":9.8e-7,"MEAN_MOTION_DDOT":0},{"OBJECT_NAME":"ONEWEB-0670","OBJECT_ID":"2023-029AK","EPOCH":"2025-09-12T12:49:50.759328","MEAN_MOTION":13.14503441,"ECCENTRICITY":0.00018165,"INCLINATION":87.9092,"RA_OF_ASC_NODE":345.0328,"ARG_OF_PERICENTER":87.4232,"MEAN_ANOMALY":272.7106,"EPHEMERIS_TYPE":0,"CLASSIFICATION_TYPE":"U","NORAD_CAT_ID":55829,"ELEMENT_SET_NO":999,"REV_AT_EPOCH":12295,"BSTAR":0.00037211705,"MEAN_MOTION_DOT":1.51e-6,"MEAN_MOTION_DDOT":0},{"OBJECT_NAME":"ONEWEB-0671","OBJECT_ID":"2023-029AL","EPOCH":"2025-09-11T19:34:51.057408","MEAN_MOTION":13.19724893,"ECCENTRICITY":0.00017178,"INCLINATION":87.9282,"RA_OF_ASC_NODE":0.3362,"ARG_OF_PERICENTER":94.049,"MEAN_ANOMALY":266.0839,"EPHEMERIS_TYPE":0,"CLASSIFICATION_TYPE":"U","NORAD_CAT_ID":55830,"ELEMENT_SET_NO":999,"REV_AT_EPOCH":12218,"BSTAR":0.00023274124,"MEAN_MOTION_DOT":1.06e-6,"MEAN_MOTION_DDOT":0},{"OBJECT_NAME":"ONEWEB-0672","OBJECT_ID":"2023-029AM","EPOCH":"2025-09-12T14:18:55.572192","MEAN_MOTION":13.20773311,"ECCENTRICITY":0.00022143,"INCLINATION":87.9279,"RA_OF_ASC_NODE":329.7802,"ARG_OF_PERICENTER":101.7634,"MEAN_ANOMALY":258.3748,"EPHEMERIS_TYPE":0,"CLASSIFICATION_TYPE":"U","NORAD_CAT_ID":55831,"ELEMENT_SET_NO":999,"REV_AT_EPOCH":12450,"BSTAR":0.00012165452,"MEAN_MOTION_DOT":6.2e-7,"MEAN_MOTION_DDOT":0},{"OBJECT_NAME":"ONEWEB-0673","OBJECT_ID":"2023-029AN","EPOCH":"2025-09-12T13:12:29.750112","MEAN_MOTION":13.19725025,"ECCENTRICITY":0.00016362,"INCLINATION":87.9293,"RA_OF_ASC_NODE":0.1574,"ARG_OF_PERICENTER":102.8282,"MEAN_ANOMALY":257.3033,"EPHEMERIS_TYPE":0,"CLASSIFICATION_TYPE":"U","NORAD_CAT_ID":55832,"ELEMENT_SET_NO":999,"REV_AT_EPOCH":12228,"BSTAR":0.00015956698,"MEAN_MOTION_DOT":7.7e-7,"MEAN_MOTION_DDOT":0},{"OBJECT_NAME":"ONEWEB-0674","OBJECT_ID":"2023-029AP","EPOCH":"2025-09-12T12:04:09.048864","MEAN_MOTION":13.14504861,"ECCENTRICITY":0.00019122,"INCLINATION":87.9091,"RA_OF_ASC_NODE":345.0221,"ARG_OF_PERICENTER":85.0218,"MEAN_ANOMALY":275.113,"EPHEMERIS_TYPE":0,"CLASSIFICATION_TYPE":"U","NORAD_CAT_ID":55833,"ELEMENT_SET_NO":999,"REV_AT_EPOCH":12293,"BSTAR":-0.00040898811,"MEAN_MOTION_DOT":-1.39e-6,"MEAN_MOTION_DDOT":0},{"OBJECT_NAME":"ONEWEB-0675","OBJECT_ID":"2023-029AQ","EPOCH":"2025-09-12T13:35:14.548704","MEAN_MOTION":13.19724211,"ECCENTRICITY":0.00019117,"INCLINATION":87.9278,"RA_OF_ASC_NODE":0.1984,"ARG_OF_PERICENTER":110.1891,"MEAN_ANOMALY":249.9447,"EPHEMERIS_TYPE":0,"CLASSIFICATION_TYPE":"U","NORAD_CAT_ID":55834,"ELEMENT_SET_NO":999,"REV_AT_EPOCH":12230,"BSTAR":-5.0198082e-5,"MEAN_MOTION_DOT":-7.0e-8,"MEAN_MOTION_DDOT":0}]
