ONEWEB-0658             
1 55819U 23029Z   25255.57878397  .00000034  00000+0  52196-4 0  9990
2 55819  87.9295   0.1303 0001379 107.8785 252.2499 13.19725994122304
ONEWEB-0660             
1 55820U 23029AA  25255.52508703  .00000026  00000+0  34477-4 0  9991
2 55820  87.9094 344.9674 0001631  91.8044 268.3272 13.14505092122929
ONEWEB-0661             
1 55821U 23029AB  25255.55998833  .00000153  00000+0  37808-3 0  9993
2 55821  87.9090 345.0324 0001695  88.5464 271.5860 13.14503411122910
ONEWEB-0662             
1 55822U 23029AC  25255.51874956 -.00000108  00000+0 -32458-3 0  9997
2 55822  87.9084 345.0465 0001551  93.6256 266.5051 13.14503882122959
ONEWEB-0663             
1 55823U 23029AD  25255.45612247  .00000099  00000+0  21233-3 0  9990
2 55823  87.9298 329.8498 0001496  93.4017 266.7288 13.20845675124484
ONEWEB-0664             
1 55824U 23029AE  25254.70950067  .00000139  00000+0  31025-3 0  9998
2 55824  87.9282 330.0178 0002036  88.1290 272.0076 13.20770976124387
ONEWEB-0665             
1 55825U 23029AF  25255.48068965  .00000121  00000+0  29171-3 0  9992
2 55825  87.9096 345.0234 0001579  95.8137 264.3173 13.14503724122924
ONEWEB-0666             
1 55826U 23029AG  25255.46075824  .00000120  00000+0  26295-3 0  9996
2 55826  87.9278 329.8565 0002529 110.9801 249.1603 13.20771182124492
ONEWEB-0667             
1 55827U 23029AH  25255.45444001  .00000073  00000+0  14841-3 0  9994
2 55827  87.9280 329.7855 0001780  93.8954 266.2382 13.20771470124486
ONEWEB-0669             
1 55828U 23029AJ  25255.44969932  .00000098  00000+0  21006-3 0  9997
2 55828  87.9282 329.8265 0002528  90.4007 269.7416 13.20769216124489
ONEWEB-0670             
1 55829U 23029AK  25255.53461527  .00000151  00000+0  37212-3 0  9991
2 55829  87.9092 345.0328 0001816  87.4232 272.7106 13.14503441122953
ONEWEB-0671             
1 55830U 23029AL  25254.81586872  .00000106  00000+0  23274-3 0  9997
2 55830  87.9282   0.3362 0001717  94.0490 266.0839 13.19724893122180
ONEWEB-0672             
1 55831U 23029AM  25255.59647653  .00000062  00000+0  12165-3 0  9997
2 55831  87.9279 329.7802 0002214 101.7634 258.3748 13.20773311124505
ONEWEB-0673             
1 55832U 23029AN  25255.55034433  .00000077  00000+0  15957-3 0  9998
2 55832  87.9293   0.1574 0001636 102.8282 257.3033 13.19725025122282
ONEWEB-0674             
1 55833U 23029AP  25255.50288251 -.00000139  00000+0 -40899-3 0  9997
2 55833  87.9091 345.0221 0001912  85.0218 275.1130 13.14504861122933
ONEWEB-0675             
1 55834U 23029AQ  25255.56614061 -.00000007  00000+0 -50198-4 0  9994
2 55834  87.9278   0.1984 0001911 110.1891 249.9447 13.19724211122301
